STARLINK-32572          
1 61952U 24209P   26068.51920847  .00035558  00000+0  12054-2 0  9997
2 61952  53.1599 142.9969 0001386  72.8799 287.2353 15.30241653 74873
TEVEL2-4                
1 63213U 25052D   26068.69417973  .00020990  00000+0  70363-3 0  9998
2 63213  97.4009 325.1237 0004733  95.3468 264.8313 15.30925813 54879
